NORAD_CAT_ID,OBJECT_NAME,OBJECT_TYPE,EPOCH,MEAN_MOTION,ECCENTRICITY,INCLINATION,RA_OF_ASC_NODE,ARG_OF_PERICENTER,MEAN_ANOMALY,BSTAR,MEAN_MOTION_DOT,MEAN_MOTION_DDOT,TLE_LINE0,TLE_LINE1,TLE_LINE2,SEMIMAJOR_AXIS,PERIOD,APOGEE,PERIGEE,DECAYED
55670.0,STARLINK-5423,PAYLOAD,2024-02-06 22:35:50,14.98277881,0.0002413,69.9995,285.0301,260.3421,99.7465,0.00086532,0.00010233,0.0,0 STARLINK-5423,1 55670U 23021AU  24037.94156147  .00010233  00000-0  86532-3 0  9990,2 55670  69.9995 285.0301 0002413 260.3421  99.7465 14.98277881 55183,6950.354,96.11,573.896,570.542,0.0
55670.0,STARLINK-5423,PAYLOAD,2024-02-07 09:48:46,14.98334738,0.0002459,69.9995,283.8511,271.0467,89.041,-0.00014893,-1.87e-05,0.0,0 STARLINK-5423,1 55670U 23021AU  24038.40887188 -.00001870  00000-0 -14893-3 0  9998,2 55670  69.9995 283.8511 0002459 271.0467  89.0410 14.98334738 55256,6950.178,96.107,573.752,570.334,0.0
55670.0,STARLINK-5423,PAYLOAD,2024-02-07 19:25:35,14.98314516,0.0002707,69.999,282.8403,269.7664,90.3185,0.0002402,2.773e-05,0.0,0 STARLINK-5423,1 55670U 23021AU  24038.80943553  .00002773  00000-0  24020-3 0  9995,2 55670  69.9990 282.8403 0002707 269.7664  90.3185 14.98314516 55019,6950.241,96.108,573.987,570.224,0.0
55670.0,STARLINK-5423,PAYLOAD,2024-02-07 22:37:50,14.98330438,0.0002676,69.999,282.5033,268.658,91.4273,-9.2676e-06,-2.04e-06,0.0,0 STARLINK-5423,1 55670U 23021AU  24038.94295111 -.00000204  00000-0 -92676-5 0  9993,2 55670  69.9990 282.5033 0002676 268.6580  91.4273 14.98330438 55331,6950.192,96.107,573.916,570.197,0.0
55670.0,STARLINK-5423,PAYLOAD,2024-02-08 01:50:07,14.98329628,0.0002721,69.999,282.1667,268.74,91.3448,-2.1647e-05,-3.51e-06,0.0,0 STARLINK-5423,1 55670U 23021AU  24039.07647196 -.00000351  00000-0 -21647-4 0  9994,2 55670  69.9990 282.1667 0002721 268.7400  91.3448 14.98329628 55054,6950.194,96.107,573.95,570.168,0.0
55670.0,STARLINK-5423,PAYLOAD,2024-02-08 09:50:47,14.98329259,0.0002729,69.999,281.3253,269.0551,91.0295,-1.2038e-06,-1.07e-06,0.0,0 STARLINK-5423,1 55670U 23021AU  24039.41027198 -.00000107  00000-0 -12038-5 0  9990,2 55670  69.9990 281.3253 0002729 269.0551  91.0295 14.98329259 55401,6950.195,96.107,573.957,570.163,0.0
55670.0,STARLINK-5423,PAYLOAD,2024-02-08 22:39:52,14.98321805,0.0003219,69.9988,279.9803,267.758,92.321,-7.277e-05,-9.61e-06,0.0,0 STARLINK-5423,1 55670U 23021AU  24039.94435864 -.00000961  00000-0 -72770-4 0  9997,2 55670  69.9988 279.9803 0003219 267.7580  92.3210 14.98321805 55482,6950.218,96.108,574.321,569.846,0.0
55670.0,STARLINK-5423,PAYLOAD,2024-02-09 01:52:10,14.98302105,0.0002988,69.9988,279.6423,271.7557,88.3259,-0.00027579,-3.38e-05,0.0,0 STARLINK-5423,1 55670U 23021AU  24040.07789966 -.00003380  00000-0 -27579-3 0  9992,2 55670  69.9988 279.6423 0002988 271.7557  88.3259 14.98302105 55208,6950.279,96.109,574.221,570.067,0.0
55670.0,STARLINK-5423,PAYLOAD,2024-02-09 14:41:14,14.98306745,0.000403,69.9963,278.2941,259.5383,100.5322,-0.00014094,-1.774e-05,0.0,0 STARLINK-5423,1 55670U 23021AU  24040.61197648 -.00001774  00000-0 -14094-3 0  9995,2 55670  69.9963 278.2941 0004030 259.5383 100.5322 14.98306745 55585,6950.265,96.108,574.931,569.329,0.0
55670.0,STARLINK-5423,PAYLOAD,2024-02-09 19:29:38,14.98320516,0.0002893,70.0007,277.7947,262.7739,97.3091,3.5448e-05,3.3e-06,0.0,0 STARLINK-5423,1 55670U 23021AU  24040.81224652  .00000330  00000-0  35448-4 0  9995,2 55670  70.0007 277.7947 0002893 262.7739  97.3091 14.98320516 55312,6950.222,96.108,574.098,570.077,0.0
55670.0,STARLINK-5423,PAYLOAD,2024-02-10 01:54:09,14.98333675,0.000298,69.9986,277.1179,263.2159,96.8661,0.00010848,1.202e-05,0.0,0 STARLINK-5423,1 55670U 23021AU  24041.07927666  .00001202  00000-0  10848-3 0  9994,2 55670  69.9986 277.1179 0002980 263.2159  96.8661 14.98333675 55356,6950.182,96.107,574.118,569.975,0.0
55670.0,STARLINK-5423,PAYLOAD,2024-02-10 19:31:37,14.98341362,0.0002776,69.9994,275.268,262.0895,97.9949,0.00020482,2.352e-05,0.0,0 STARLINK-5423,1 55670U 23021AU  24041.81362733  .00002352  00000-0  20482-3 0  9996,2 55670  69.9994 275.2680 0002776 262.0895  97.9949 14.98341362 55463,6950.158,96.106,573.952,570.093,0.0
55670.0,STARLINK-5423,PAYLOAD,2024-02-10 22:43:53,14.98336229,0.0003119,69.9986,274.9296,267.3324,92.7478,0.00031503,3.668e-05,0.0,0 STARLINK-5423,1 55670U 23021AU  24041.94714700  .00003668  00000-0  31503-3 0  9992,2 55670  69.9986 274.9296 0003119 267.3324  92.7478 14.98336229 55781,6950.174,96.107,574.206,569.871,0.0
55670.0,STARLINK-5423,PAYLOAD,2024-02-11 01:56:09,14.98337364,0.0003049,69.9987,274.593,263.0853,96.9959,0.00037309,4.362e-05,0.0,0 STARLINK-5423,1 55670U 23021AU  24042.08066408  .00004362  00000-0  37309-3 0  9995,2 55670  69.9987 274.5930 0003049 263.0853  96.9959 14.98337364 55809,6950.17,96.107,574.154,569.916,0.0
55670.0,STARLINK-5423,PAYLOAD,2024-02-11 21:09:46,14.98339106,0.0002978,69.9984,272.5728,259.0327,101.0497,-3.0982e-06,-1.3e-06,0.0,0 STARLINK-5423,1 55670U 23021AU  24042.88179141 -.00000130  00000-0 -30982-5 0  9995,2 55670  69.9984 272.5728 0002978 259.0327 101.0497 14.98339106 55621,6950.165,96.106,574.099,569.96,0.0
55670.0,STARLINK-5423,PAYLOAD,2024-02-12 14:47:15,14.98337713,0.0002725,69.999,270.7215,253.2382,106.8478,-0.0001109,-1.416e-05,0.0,0 STARLINK-5423,1 55670U 23021AU  24043.61615109 -.00001416  00000-0 -11090-3 0  9991,2 55670  69.9990 270.7215 0002725 253.2382 106.8478 14.98337713 56036,6950.169,96.107,573.928,570.14,0.0
55670.0,STARLINK-5423,PAYLOAD,2024-02-12 22:47:55,14.98334174,0.0002758,69.9989,269.8798,253.5261,106.5595,-0.00014128,-1.778e-05,0.0,0 STARLINK-5423,1 55670U 23021AU  24043.94995232 -.00001778  00000-0 -14128-3 0  9991,2 55670  69.9989 269.8798 0002758 253.5261 106.5595 14.98334174 56084,6950.18,96.107,573.962,570.128,0.0
55670.0,STARLINK-5423,PAYLOAD,2024-02-13 00:24:03,14.98334842,0.0002812,69.9988,269.7108,254.2682,105.8167,-0.00015255,-1.913e-05,0.0,0 STARLINK-5423,1 55670U 23021AU  24044.01671192 -.00001913  00000-0 -15255-3 0  9999,2 55670  69.9988 269.7108 0002812 254.2682 105.8167 14.98334842 55799,6950.178,96.107,573.997,570.089,0.0
55670.0,STARLINK-5423,PAYLOAD,2024-02-13 08:24:44,14.98334785,0.0002863,69.9986,268.8692,268.2268,91.8563,-0.00017189,-2.144e-05,0.0,0 STARLINK-5423,1 55670U 23021AU  24044.35051185 -.00002144  00000-0 -17189-3 0  9995,2 55670  69.9986 268.8692 0002863 268.2268  91.8563 14.98334785 56146,6950.178,96.107,574.033,570.053,0.0
55670.0,STARLINK-5423,PAYLOAD,2024-02-13 22:49:56,14.98329013,0.0002875,69.9982,267.3538,268.9695,91.1134,-3.8618e-05,-5.54e-06,0.0,0 STARLINK-5423,1 55670U 23021AU  24044.95135313 -.00000554  00000-0 -38618-4 0  9991,2 55670  69.9982 267.3538 0002875 268.9695  91.1134 14.98329013 56234,6950.196,96.107,574.059,570.063,0.0
55670.0,STARLINK-5423,PAYLOAD,2024-02-14 00:26:04,14.98329558,0.0002871,69.9982,267.1855,269.0857,90.9973,-3.1444e-05,-4.68e-06,0.0,0 STARLINK-5423,1 55670U 23021AU  24045.01811265 -.00000468  00000-0 -31444-4 0  9990,2 55670  69.9982 267.1855 0002871 269.0857  90.9973 14.98329558 55941,6950.194,96.107,574.055,570.064,0.0
55670.0,STARLINK-5423,PAYLOAD,2024-02-14 14:51:17,14.98332976,0.0002963,69.998,265.6708,269.6179,90.4641,9.0905e-05,9.92e-06,0.0,0 STARLINK-5423,1 55670U 23021AU  24045.61894692  .00000992  00000-0  90905-4 0  9998,2 55670  69.9980 265.6708 0002963 269.6179  90.4641 14.98332976 56333,6950.184,96.107,574.108,569.989,0.0
55670.0,STARLINK-5423,PAYLOAD,2024-02-14 21:15:49,14.98333715,0.0002993,69.9979,264.9978,270.1609,89.9207,9.3055e-05,1.018e-05,0.0,0 STARLINK-5423,1 55670U 23021AU  24045.88598606  .00001018  00000-0  93055-4 0  9992,2 55670  69.9979 264.9978 0002993 270.1609  89.9207 14.98333715 56377,6950.181,96.107,574.127,569.966,0.0
55670.0,STARLINK-5423,PAYLOAD,2024-02-15 00:28:05,14.98335384,0.0002978,69.9979,264.6611,270.1454,89.9364,0.00010947,1.214e-05,0.0,0 STARLINK-5423,1 55670U 23021AU  24046.01950432  .00001214  00000-0  10947-3 0  9993,2 55670  69.9979 264.6611 0002978 270.1454  89.9364 14.98335384 56096,6950.176,96.107,574.111,569.971,0.0
55670.0,STARLINK-5423,PAYLOAD,2024-02-15 14:53:18,14.98328118,0.0002939,69.998,263.146,270.2108,89.8714,4.9956e-05,5.03e-06,0.0,0 STARLINK-5423,1 55670U 23021AU  24046.62035010  .00000503  00000-0  49956-4 0  9999,2 55670  69.9980 263.1460 0002939 270.2108  89.8714 14.98328118 56486,6950.199,96.107,574.106,570.021,0.0
55670.0,STARLINK-5423,PAYLOAD,2024-02-15 19:41:42,14.98327945,0.0002947,69.998,262.641,270.196,89.8861,4.5038e-05,4.44e-06,0.0,0 STARLINK-5423,1 55670U 23021AU  24046.82063048  .00000444  00000-0  45038-4 0  9994,2 55670  69.9980 262.6410 0002947 270.1960  89.8861 14.98327945 56210,6950.199,96.107,574.112,570.016,0.0
55670.0,STARLINK-5423,PAYLOAD,2024-02-16 14:55:19,14.98332005,0.00029,69.9981,260.6211,271.2534,88.8293,-3.0691e-05,-4.59e-06,0.0,0 STARLINK-5423,1 55670U 23021AU  24047.62174994 -.00000459  00000-0 -30691-4 0  9993,2 55670  69.9981 260.6211 0002900 271.2534  88.8293 14.98332005 56633,6950.187,96.107,574.067,570.036,0.0
55670.0,STARLINK-5423,PAYLOAD,2024-02-16 19:43:43,14.98331852,0.0002908,69.9981,260.1161,271.2597,88.8228,-2.9816e-05,-4.49e-06,0.0,0 STARLINK-5423,1 55670U 23021AU  24047.82202970 -.00000449  00000-0 -29816-4 0  9997,2 55670  69.9981 260.1161 0002908 271.2597  88.8228 14.98331852 56366,6950.187,96.107,574.073,570.031,0.0
55670.0,STARLINK-5423,PAYLOAD,2024-02-16 21:19:51,14.98331873,0.0002903,69.9981,259.9479,270.8047,89.2779,-3.1826e-05,-4.73e-06,0.0,0 STARLINK-5423,1 55670U 23021AU  24047.88878964 -.00000473  00000-0 -31826-4 0  9996,2 55670  69.9981 259.9479 0002903 270.8047  89.2779 14.98331873 56677,6950.187,96.107,574.07,570.034,0.0
55670.0,STARLINK-5423,PAYLOAD,2024-02-17 14:57:19,14.9833188,0.0002975,69.9979,258.0958,272.9875,87.0944,6.2246e-05,6.5e-06,0.0,0 STARLINK-5423,1 55670U 23021AU  24048.62314607  .00000650  00000-0  62246-4 0  9993,2 55670  69.9979 258.0958 0002975 272.9875  87.0944 14.98331880 56787,6950.187,96.107,574.12,569.984,0.0
